NORAD_CAT_ID,OBJECT_NAME,OBJECT_TYPE,EPOCH,MEAN_MOTION,ECCENTRICITY,INCLINATION,RA_OF_ASC_NODE,ARG_OF_PERICENTER,MEAN_ANOMALY,BSTAR,MEAN_MOTION_DOT,MEAN_MOTION_DDOT,TLE_LINE0,TLE_LINE1,TLE_LINE2,SEMIMAJOR_AXIS,PERIOD,APOGEE,PERIGEE,DECAYED
54773.0,STARLINK-5453,PAYLOAD,2024-04-17 18:12:16,15.08837775,0.0001491,53.2181,265.7068,61.9369,298.1774,0.00032741,4.926e-05,0.0,0 STARLINK-5453,1 54773U 22175R   24108.75851961  .00004926  00000-0  32741-3 0  9991,2 54773  53.2181 265.7068 0001491  61.9369 298.1774 15.08837775 75619,6917.887,95.438,540.784,538.721,0.0
54773.0,STARLINK-5453,PAYLOAD,2024-04-18 10:06:07,15.08845642,0.0001183,53.2171,262.7339,65.2487,294.8628,0.00025911,3.839e-05,0.0,0 STARLINK-5453,1 54773U 22175R   24109.42091507  .00003839  00000-0  25911-3 0  9991,2 54773  53.2171 262.7339 0001183  65.2487 294.8628 15.08845642 73556,6917.863,95.437,540.547,538.91,0.0
54773.0,STARLINK-5453,PAYLOAD,2024-04-18 14:52:15,15.08854601,0.0001434,53.217,261.8429,70.9356,289.1792,0.00022281,3.261e-05,0.0,0 STARLINK-5453,1 54773U 22175R   24109.61962944  .00003261  00000-0  22281-3 0  9990,2 54773  53.2170 261.8429 0001434  70.9356 289.1792 15.08854601 75749,6917.836,95.437,540.693,538.709,0.0
54773.0,STARLINK-5453,PAYLOAD,2024-04-18 16:27:39,15.08856911,0.0001719,53.2163,261.546,61.6544,298.4621,0.00024476,3.611e-05,0.0,0 STARLINK-5453,1 54773U 22175R   24109.68586951  .00003611  00000-0  24476-3 0  9994,2 54773  53.2163 261.5460 0001719  61.6544 298.4621 15.08856911 73596,6917.829,95.436,540.883,538.505,0.0
54773.0,STARLINK-5453,PAYLOAD,2024-04-19 13:07:39,15.08849366,0.0001915,53.2156,257.6816,66.7203,293.399,0.0001559,2.195e-05,0.0,0 STARLINK-5453,1 54773U 22175R   24110.54698873  .00002195  00000-0  15590-3 0  9991,2 54773  53.2156 257.6816 0001915  66.7203 293.3990 15.08849366 73729,6917.852,95.437,541.042,538.392,0.0
54773.0,STARLINK-5453,PAYLOAD,2024-04-19 14:43:02,15.08848892,0.0001717,53.2175,257.3833,91.5942,268.5247,0.0002036,2.954e-05,0.0,0 STARLINK-5453,1 54773U 22175R   24110.61322705  .00002954  00000-0  20360-3 0  9991,2 54773  53.2175 257.3833 0001717  91.5942 268.5247 15.08848892 75894,6917.853,95.437,540.906,538.53,0.0
54773.0,STARLINK-5453,PAYLOAD,2024-04-19 16:18:25,15.08855625,0.0001644,53.2175,257.0831,77.4253,282.6923,0.0002133,3.11e-05,0.0,0 STARLINK-5453,1 54773U 22175R   24110.67946419  .00003110  00000-0  21330-3 0  9994,2 54773  53.2175 257.0831 0001644  77.4253 282.6923 15.08855625 75908,6917.833,95.437,540.835,538.56,0.0
54773.0,STARLINK-5453,PAYLOAD,2024-04-20 14:33:48,15.08855028,0.0001692,53.218,252.9218,94.8071,265.3114,5.9867e-05,6.65e-06,0.0,0 STARLINK-5453,1 54773U 22175R   24111.60681616  .00000665  00000-0  59867-4 0  9992,2 54773  53.2180 252.9218 0001692  94.8071 265.3114 15.08855028 76044,6917.834,95.437,540.87,538.529,0.0
54773.0,STARLINK-5453,PAYLOAD,2024-04-20 19:19:57,15.0885914,0.000155,53.2177,252.0244,101.9211,258.1955,7.4364e-05,8.96e-06,0.0,0 STARLINK-5453,1 54773U 22175R   24111.80553045  .00000896  00000-0  74364-4 0  9993,2 54773  53.2177 252.0244 0001550 101.9211 258.1955 15.08859140 73914,6917.822,95.436,540.759,538.615,0.0
54773.0,STARLINK-5453,PAYLOAD,2024-04-21 14:24:37,15.08830563,0.0001528,53.2183,248.4593,89.8562,270.2605,-0.0001734,-3.046e-05,0.0,0 STARLINK-5453,1 54773U 22175R   24112.60042925 -.00003046  00000-0 -17340-3 0  9994,2 54773  53.2183 248.4593 0001528  89.8562 270.2605 15.08830563 76193,6917.909,95.438,540.831,538.717,0.0
54773.0,STARLINK-5453,PAYLOAD,2024-04-21 15:59:59,15.08839628,0.000174,53.2183,248.1627,107.5895,252.5287,-2.5841e-05,-6.99e-06,0.0,0 STARLINK-5453,1 54773U 22175R   24112.66666501 -.00000699  00000-0 -25841-4 0  9999,2 54773  53.2183 248.1627 0001740 107.5895 252.5287 15.08839628 74043,6917.882,95.438,540.95,538.543,0.0
54773.0,STARLINK-5453,PAYLOAD,2024-04-22 09:29:14,15.08835171,0.0001625,53.2177,244.8912,106.6834,253.4337,-0.00010446,-1.95e-05,0.0,0 STARLINK-5453,1 54773U 22175R   24113.39531047 -.00001950  00000-0 -10446-3 0  9991,2 54773  53.2177 244.8912 0001625 106.6834 253.4337 15.08835171 76318,6917.895,95.438,540.884,538.636,0.0
54773.0,STARLINK-5453,PAYLOAD,2024-04-22 15:50:47,15.08840288,0.0001544,53.2183,243.6998,84.3392,275.7777,2.2395e-05,6.8e-07,0.0,0 STARLINK-5453,1 54773U 22175R   24113.66026745  .00000068  00000-0  22395-4 0  9999,2 54773  53.2183 243.6998 0001544  84.3392 275.7777 15.08840288 76351,6917.88,95.438,540.813,538.676,0.0
54773.0,STARLINK-5453,PAYLOAD,2024-04-23 12:30:48,15.08832092,0.0001528,53.2192,239.8414,97.9074,262.2092,8.0627e-05,9.95e-06,0.0,0 STARLINK-5453,1 54773U 22175R   24114.52139880  .00000995  00000-0  80627-4 0  9991,2 54773  53.2192 239.8414 0001528  97.9074 262.2092 15.08832092 74320,6917.905,95.438,540.827,538.713,0.0
54773.0,STARLINK-5453,PAYLOAD,2024-04-23 14:06:11,15.08834882,0.0001788,53.2179,239.5422,86.7144,273.4053,0.00011597,1.558e-05,0.0,0 STARLINK-5453,1 54773U 22175R   24114.58763797  .00001558  00000-0  11597-3 0  9992,2 54773  53.2179 239.5422 0001788  86.7144 273.4053 15.08834882 76493,6917.896,95.438,540.998,538.524,0.0
54773.0,STARLINK-5453,PAYLOAD,2024-04-23 15:41:34,15.08849796,0.0001503,53.2175,239.2383,80.2968,279.8194,0.00033725,5.085e-05,0.0,0 STARLINK-5453,1 54773U 22175R   24114.65387139  .00005085  00000-0  33725-3 0  9998,2 54773  53.2175 239.2383 0001503  80.2968 279.8194 15.08849796 74348,6917.85,95.437,540.755,538.676,0.0
54773.0,STARLINK-5453,PAYLOAD,2024-04-24 12:21:35,15.08841711,0.0002157,53.2187,235.3786,51.8896,308.229,0.0001011,1.321e-05,0.0,0 STARLINK-5453,1 54773U 22175R   24115.51499644  .00001321  00000-0  10110-3 0  9991,2 54773  53.2187 235.3786 0002157  51.8896 308.2290 15.08841711 74472,6917.875,95.437,541.232,538.248,0.0
54773.0,STARLINK-5453,PAYLOAD,2024-04-24 13:56:58,15.08844894,0.0001823,53.2189,235.0806,59.7024,300.4149,0.00013408,1.847e-05,0.0,0 STARLINK-5453,1 54773U 22175R   24115.58123459  .00001847  00000-0  13408-3 0  9992,2 54773  53.2189 235.0806 0001823  59.7024 300.4149 15.08844894 76646,6917.865,95.437,540.992,538.469,0.0
54773.0,STARLINK-5453,PAYLOAD,2024-04-24 15:32:21,15.08859308,0.0001459,53.218,234.7873,84.915,275.2008,0.00033406,5.035e-05,0.0,0 STARLINK-5453,1 54773U 22175R   24115.64746674  .00005035  00000-0  33406-3 0  9992,2 54773  53.2180 234.7873 0001459  84.9150 275.2008 15.08859308 74492,6917.821,95.436,540.696,538.677,0.0
54773.0,STARLINK-5453,PAYLOAD,2024-04-25 12:12:22,15.08838659,0.0001546,53.2176,230.9118,75.7145,284.4019,-0.00015169,-2.701e-05,0.0,0 STARLINK-5453,1 54773U 22175R   24116.50859626 -.00002701  00000-0 -15169-3 0  9995,2 54773  53.2176 230.9118 0001546  75.7145 284.4019 15.08838659 74621,6917.884,95.438,540.819,538.68,0.0
54773.0,STARLINK-5453,PAYLOAD,2024-04-25 13:47:46,15.08844169,0.0002028,53.2191,230.616,60.9789,299.1406,-3.9482e-05,-9.17e-06,0.0,0 STARLINK-5453,1 54773U 22175R   24116.57484082 -.00000917  00000-0 -39482-4 0  9994,2 54773  53.2191 230.6160 0002028  60.9789 299.1406 15.08844169 76794,6917.868,95.437,541.136,538.33,0.0
54773.0,STARLINK-5453,PAYLOAD,2024-04-26 13:38:32,15.08848959,0.0001543,53.2182,226.1628,85.6757,274.4411,2.5804e-05,1.23e-06,0.0,0 STARLINK-5453,1 54773U 22175R   24117.56843454  .00000123  00000-0  25804-4 0  9996,2 54773  53.2182 226.1628 0001543  85.6757 274.4411 15.08848959 74783,6917.853,95.437,540.785,538.651,0.0
54773.0,STARLINK-5453,PAYLOAD,2024-04-27 13:29:19,15.08851909,0.0001434,53.2181,221.6989,85.0081,275.1075,0.00023727,3.491e-05,0.0,0 STARLINK-5453,1 54773U 22175R   24118.56203050  .00003491  00000-0  23727-3 0  9991,2 54773  53.2181 221.6989 0001434  85.0081 275.1075 15.08851909 77095,6917.844,95.437,540.701,538.717,0.0
54773.0,STARLINK-5453,PAYLOAD,2024-04-27 16:40:05,15.0885576,0.0001456,53.2179,221.1016,87.2906,272.8252,0.00028137,4.195e-05,0.0,0 STARLINK-5453,1 54773U 22175R   24118.69450761  .00004195  00000-0  28137-3 0  9990,2 54773  53.2179 221.1016 0001456  87.2906 272.8252 15.08855760 74954,6917.832,95.437,540.704,538.69,0.0
54773.0,STARLINK-5453,PAYLOAD,2024-04-28 13:20:08,15.08828459,0.0001546,53.2184,217.2388,100.6015,259.5151,-0.00011833,-2.17e-05,0.0,0 STARLINK-5453,1 54773U 22175R   24119.55565074 -.00002170  00000-0 -11833-3 0  9998,2 54773  53.2184 217.2388 0001546 100.6015 259.5151 15.08828459 75089,6917.916,95.438,540.85,538.711,0.0
54773.0,STARLINK-5453,PAYLOAD,2024-04-29 13:10:54,15.08845489,0.0001338,53.2186,212.7795,100.9839,259.1304,5.8091e-05,6.37e-06,0.0,0 STARLINK-5453,1 54773U 22175R   24120.54923862  .00000637  00000-0  58091-4 0  9994,2 54773  53.2186 212.7795 0001338 100.9839 259.1304 15.08845489 75234,6917.864,95.437,540.654,538.803,0.0
54773.0,STARLINK-5453,PAYLOAD,2024-04-30 05:04:46,15.0883052,0.0001326,53.2177,209.8067,111.9887,248.1246,0.00023984,3.53e-05,0.0,0 STARLINK-5453,1 54773U 22175R   24121.21164597  .00003530  00000-0  23984-3 0  9998,2 54773  53.2177 209.8067 0001326 111.9887 248.1246 15.08830520 75339,6917.909,95.438,540.692,538.857,0.0
54773.0,STARLINK-5453,PAYLOAD,2024-04-30 13:01:41,15.08840825,0.0001325,53.2168,208.3197,107.0255,253.0882,0.00025857,3.83e-05,0.0,0 STARLINK-5453,1 54773U 22175R   24121.54284528  .00003830  00000-0  25857-3 0  9995,2 54773  53.2168 208.3197 0001325 107.0255 253.0882 15.08840825 77546,6917.878,95.438,540.659,538.826,0.0
54773.0,STARLINK-5453,PAYLOAD,2024-04-30 22:34:00,15.08843051,0.0001295,53.2168,206.5355,104.6708,255.4427,0.00021666,3.162e-05,0.0,0 STARLINK-5453,1 54773U 22175R   24121.94028350  .00003162  00000-0  21666-3 0  9990,2 54773  53.2168 206.5355 0001295 104.6708 255.4427 15.08843051 77606,6917.871,95.437,540.632,538.84,0.0
54773.0,STARLINK-5453,PAYLOAD,2024-05-01 22:24:47,15.08843992,0.0001114,53.217,202.0728,95.3882,264.7237,6.4264e-05,7.35e-06,0.0,0 STARLINK-5453,1 54773U 22175R   24122.93388253  .00000735  00000-0  64264-4 0  9996,2 54773  53.2170 202.0728 0001114  95.3882 264.7237 15.08843992 77755,6917.868,95.437,540.504,538.963,0.0
